H1 CPF 01  gfz 2021 04 11 00  6011 terrasarx 
H2 0702601  6201 31698    2021 04 11 00 59 42 2021 04 16 00 00 42   120 1 1  0 0 0
H9
10 0 59315  36702.000000  0    2653539.906  -3640237.918   5201755.698
10 0 59315  36822.000000  0    2845125.775  -4285453.077   4572475.362
10 0 59315  36942.000000  0    2976332.219  -4858600.567   3862720.692
10 0 59315  37062.000000  0    3046208.476  -5348574.313   3084962.565
10 0 59315  37182.000000  0    3055062.121  -5745720.810   2252882.277
10 0 59315  37302.000000  0    3004428.996  -6042036.588   1381127.894
10 0 59315  37422.000000  0    2897017.329  -6231334.089    485051.799
10 0 59315  37542.000000  0    2736628.847  -6309373.924   -419565.689
10 0 59315  37662.000000  0    2528056.228  -6273959.655  -1316803.860
10 0 59315  37782.000000  0    2276959.665  -6124988.608  -2190891.359
10 0 59315  37902.000000  0    1989727.403  -5864462.236  -3026490.333
10 0 59315  38022.000000  0    1673321.193  -5496453.394  -3808972.215
10 0 59315  38142.000000  0    1335113.688  -5027030.755  -4524674.078
10 0 59315  38262.000000  0     982723.018  -4464146.678  -5161133.935
10 0 59315  38382.000000  0     623846.300  -3817491.608  -5707301.105
10 0 59315  38502.000000  0     266096.199  -3098317.678  -6153719.089
10 0 59315  38622.000000  0     -83155.878  -2319236.085  -6492678.039
10 0 59315  38742.000000  0    -416926.986  -1493992.802  -6718336.473
10 0 59315  38862.000000  0    -728757.527   -637226.718  -6826812.095
10 0 59315  38982.000000  0   -1012831.814    235786.926  -6816241.456
10 0 59315  39102.000000  0   -1264083.503   1109402.714  -6686807.233
10 0 59315  39222.000000  0   -1478283.826   1967878.186  -6440735.302
10 0 59315  39342.000000  0   -1652111.248   2795650.205  -6082260.676
10 0 59315  39462.000000  0   -1783202.915   3577612.683  -5617563.922
10 0 59315  39582.000000  0   -1870185.976   4299390.662  -5054674.726
10 0 59315  39702.000000  0   -1912688.883   4947606.853  -4403345.074
10 0 59315  39822.000000  0   -1911332.050   5510135.546  -3674890.169
10 0 59315  39942.000000  0   -1867696.997   5976337.061  -2881999.889
10 0 59315  40062.000000  0   -1784274.658   6337268.803  -2038524.242
10 0 59315  40182.000000  0   -1664394.511   6585868.620  -1159233.763
10 0 59315  40302.000000  0   -1512134.896   6717103.027   -259559.649
10 0 59315  40422.000000  0   -1332216.931   6728078.925    644680.620
10 0 59315  40542.000000  0   -1129884.002   6618114.225   1537570.645
10 0 59315  40662.000000  0    -910770.205   6388759.777   2403386.678
10 0 59315  40782.000000  0    -680760.820   6043775.530   3226882.347
10 0 59315  40902.000000  0    -445849.234   5589064.292   3993562.877
10 0 59315  41022.000000  0    -211994.305   5032564.928   4689945.129
10 0 59315  41142.000000  0      15020.051   4384101.986   5303799.322
10 0 59315  41262.000000  0     229719.235   3655201.071   5824358.838
10 0 59315  41382.000000  0     427061.425   2858877.042   6242506.302
10 0 59315  41502.000000  0     602548.939   2009393.406   6550927.712
10 0 59315  41622.000000  0     752325.306   1122002.267   6744234.254
10 0 59315  41742.000000  0     873256.143    212667.563   6819050.478
10 0 59315  41862.000000  0     962992.589   -702221.248   6774069.176
10 0 59315  41982.000000  0    1020016.229  -1606143.977   6610074.101
10 0 59315  42102.000000  0    1043664.859  -2482747.674   6329927.468
10 0 59315  42222.000000  0    1034138.713  -3316143.393   5938523.707
10 0 59315  42342.000000  0     992486.168  -4091196.563   5442707.391
10 0 59315  42462.000000  0     920571.181  -4793803.853   4851158.604
10 0 59315  42582.000000  0     821022.333  -5411155.107   4174248.144
10 0 59315  42702.000000  0     697163.804  -5931976.619   3423861.003
10 0 59315  42822.000000  0     552929.570  -6346747.548   2613189.259
10 0 59315  42942.000000  0     392762.355  -6647883.767   1756499.016
10 0 59315  43062.000000  0     221500.109  -6829885.106    868876.357
10 0 59315  43182.000000  0      44252.669  -6889444.516    -34044.579
10 0 59315  43302.000000  0    -133729.016  -6825511.392   -936367.520
10 0 59315  43422.000000  0    -307186.007  -6639307.299  -1822223.594
10 0 59315  43542.000000  0    -470983.980  -6334296.592  -2676057.531
10 0 59315  43662.000000  0    -620242.254  -5916113.857  -3482906.347
10 0 59315  43782.000000  0    -750456.263  -5392448.720  -4228664.995
10 0 59315  43902.000000  0    -857610.011  -4772890.898  -4900332.100
10 0 59315  44022.000000  0    -938276.030  -4068742.278  -5486231.097
10 0 59315  44142.000000  0    -989700.786  -3292800.575  -5976205.088
10 0 59315  44262.000000  0   -1009873.744  -2459119.321  -6361782.802
10 0 59315  44382.000000  0    -997579.261  -1582749.088  -6636313.662
10 0 59315  44502.000000  0    -952430.682   -679465.999  -6795071.291
10 0 59315  44622.000000  0    -874886.318    234508.839  -6835326.445
10 0 59315  44742.000000  0    -766246.152   1142794.565  -6756387.695
10 0 59315  44862.000000  0    -628630.376   2029136.334  -6559611.836
10 0 59315  44982.000000  0    -464940.275   2877688.715  -6248383.343
10 0 59315  45102.000000  0    -278800.937   3673294.213  -5828063.942
10 0 59315  45222.000000  0     -74486.398   4401752.817  -5305909.539
10 0 59315  45342.000000  0     143170.895   5050076.574  -4690956.083
10 0 59315  45462.000000  0     368884.930   5606727.427  -3993874.691
10 0 59315  45582.000000  0     597033.972   6061831.886  -3226795.765
10 0 59315  45702.000000  0     821788.908   6407367.349  -2403105.002
10 0 59315  45822.000000  0    1037249.542   6637316.499  -1537213.648
10 0 59315  45942.000000  0    1237585.607   6747784.616   -644305.859
10 0 59315  46062.000000  0    1417179.286   6737075.874    259931.868
10 0 59315  46182.000000  0    1570765.105   6605725.006   1159593.396
10 0 59315  46302.000000  0    1693562.814   6356484.474   2038840.355
10 0 59315  46422.000000  0    1781401.172   5994268.196   2882188.997
10 0 59315  46542.000000  0    1830829.103   5526052.334   3674790.531
10 0 59315  46662.000000  0    1839210.885   4960734.871   4402699.734
10 0 59315  46782.000000  0    1804803.437   4308957.177   5053124.474
10 0 59315  46902.000000  0    1726813.278   3582891.708   5614650.979
10 0 59315  47022.000000  0    1605432.368   2796006.386   6077438.731
10 0 59315  47142.000000  0    1441853.298   1962808.728   6433388.798
10 0 59315  47262.000000  0    1238262.496   1098572.762   6676280.152
10 0 59315  47382.000000  0     997812.121    219055.680   6801871.342
10 0 59315  47502.000000  0     724571.384   -659788.392   6807969.459
10 0 59315  47622.000000  0     423457.550  -1522097.308   6694467.788
10 0 59315  47742.000000  0     100147.296  -2352387.222   6463347.585
10 0 59315  47862.000000  0    -239030.129  -3135831.219   6118645.675
10 0 59315  47982.000000  0    -587214.979  -3858525.408   5666385.902
10 0 59315  48102.000000  0    -937152.307  -4507736.345   5114479.042
10 0 59315  48222.000000  0   -1281339.858  -5072130.412   4472593.482
10 0 59315  48342.000000  0   -1612186.816  -5541981.601   3751992.322
10 0 59315  48462.000000  0   -1922178.144  -5909349.266   2965337.688
10 0 59315  48582.000000  0   -2204041.651  -6168220.905   2126468.109
10 0 59315  48702.000000  0   -2450913.817  -6314618.037   1250152.399
10 0 59315  48822.000000  0   -2656499.025  -6346662.164    351823.819
10 0 59315  48942.000000  0   -2815218.951  -6264598.766   -552699.458
10 0 59315  49062.000000  0   -2922348.189  -6070778.371  -1447501.697
10 0 59315  49182.000000  0   -2974132.935  -5769594.945  -2316858.327
10 0 59315  49302.000000  0   -2967889.702  -5367383.583  -3145519.641
10 0 59315  49422.000000  0   -2902081.082  -4872279.844  -3918983.311
10 0 59315  49542.000000  0   -2776366.814  -4294045.357  -4623748.602
10 0 59315  49662.000000  0   -2591630.091  -3643866.057  -5247548.099
10 0 59315  49782.000000  0   -2349979.462  -2934127.977  -5779554.216
10 0 59315  49902.000000  0   -2054726.394  -2178175.518  -6210558.064
10 0 59315  50022.000000  0   -1710338.183  -1390057.132  -6533118.361
10 0 59315  50142.000000  0   -1322368.389   -584263.885  -6741678.071
10 0 59315  50262.000000  0    -897367.316    224533.887  -6832649.241
10 0 59315  50382.000000  0    -442772.763   1021747.446  -6804467.621
10 0 59315  50502.000000  0      33217.602   1793126.010  -6657616.433
10 0 59315  50622.000000  0     521789.064   2525004.644  -6394619.616
10 0 59315  50742.000000  0    1013669.369   3204542.527  -6020005.208
10 0 59315  50862.000000  0    1499300.920   3819946.752  -5540234.731
10 0 59315  50982.000000  0    1969022.295   4360677.436  -4963602.120
10 0 59315  51102.000000  0    2413257.909   4817632.797  -4300102.335
10 0 59315  51222.000000  0    2822711.550   5183310.083  -3561268.028
10 0 59315  51342.000000  0    3188559.774   5451937.549  -2759977.530
10 0 59315  51462.000000  0    3502642.174   5619575.591  -1910235.696
10 0 59315  51582.000000  0    3757642.904   5684182.567  -1026930.389
10 0 59315  51702.000000  0    3947258.447   5645643.948   -125568.934
10 0 59315  51822.000000  0    4066347.309   5505762.672    777999.950
10 0 59315  51942.000000  0    4111057.749   5268210.051   1667872.585
10 0 59315  52062.000000  0    4078929.746   4938439.322   2528377.415
10 0 59315  52182.000000  0    3968970.149   4523565.588   3344360.735
10 0 59315  52302.000000  0    3781694.919   4032208.953   4101461.140
10 0 59315  52422.000000  0    3519142.604   3474311.364   4786365.029
10 0 59315  52542.000000  0    3184856.058   2860931.235   5387044.563
10 0 59315  52662.000000  0    2783830.606   2204016.926   5892967.170
10 0 59315  52782.000000  0    2322437.089   1516169.133   6295274.100
10 0 59315  52902.000000  0    1808317.387    810395.336   6586930.398
10 0 59315  53022.000000  0    1250254.451     99862.353   6762840.965
10 0 59315  53142.000000  0     658020.394   -602347.921   6819934.732
99
